EXCITE                  
1 43819U 18099BP  26068.69809098  .00002813  00000+0  19631-3 0  9999
2 43819  97.4107 111.3606 0017626 337.4818  22.5634 15.06036758396774
STARLINK-5124           
1 54011U 22125AZ  26068.64248706 -.00000792  00000+0 -31710-4 0  9997
2 54011  53.2173 204.4838 0001259  85.7158 274.3978 15.08838270189598
